STARLINK-2022           
1 47643U 21012Z   23277.82695252  .00020662  00000+0  14017-2 0  9990
2 47643  53.0538  72.8989 0001505  86.1939 273.9222 15.06405572146597
